NORAD_CAT_ID,OBJECT_NAME,OBJECT_TYPE,EPOCH,MEAN_MOTION,ECCENTRICITY,INCLINATION,RA_OF_ASC_NODE,ARG_OF_PERICENTER,MEAN_ANOMALY,BSTAR,MEAN_MOTION_DOT,MEAN_MOTION_DDOT,TLE_LINE0,TLE_LINE1,TLE_LINE2,SEMIMAJOR_AXIS,PERIOD,APOGEE,PERIGEE,DECAYED
53834.0,STARLINK-4737,PAYLOAD,2024-08-02 21:35:56,15.08833598,0.0001539,53.2174,44.5275,81.0892,279.0275,-7.6685e-06,-4.1e-06,0.0,0 STARLINK-4737,1 53834U 22114S   24215.89995848 -.00000410  00000-0 -76685-5 0  9991,2 53834  53.2174  44.5275 0001539  81.0892 279.0275 15.08833598104704,6917.9,95.438,540.83,538.7,0.0
53834.0,STARLINK-4737,PAYLOAD,2024-08-03 05:32:52,15.08833616,0.0001579,53.2174,43.0407,87.0816,273.0356,0.0001218,1.651e-05,0.0,0 STARLINK-4737,1 53834U 22114S   24216.23115958  .00001651  00000-0  12180-3 0  9990,2 53834  53.2174  43.0407 0001579  87.0816 273.0356 15.08833616104212,6917.9,95.438,540.857,538.673,0.0
53834.0,STARLINK-4737,PAYLOAD,2024-08-03 19:51:21,15.08828166,0.0001649,53.2176,40.3644,88.5421,271.576,0.00022617,3.312e-05,0.0,0 STARLINK-4737,1 53834U 22114S   24216.82732888  .00003312  00000-0  22617-3 0  9994,2 53834  53.2176  40.3644 0001649  88.5421 271.5760 15.08828166104309,6917.917,95.438,540.922,538.641,0.0
53834.0,STARLINK-4737,PAYLOAD,2024-08-03 21:26:44,15.08832556,0.0001578,53.2175,40.0664,86.5463,273.5709,0.00018244,2.616e-05,0.0,0 STARLINK-4737,1 53834U 22114S   24216.89356803  .00002616  00000-0  18244-3 0  9997,2 53834  53.2175  40.0664 0001578  86.5463 273.5709 15.08832556104855,6917.903,95.438,540.86,538.676,0.0
53834.0,STARLINK-4737,PAYLOAD,2024-08-04 05:23:39,15.08848252,0.0001624,53.2179,38.5781,83.3282,276.7895,0.00065312,0.00010124,0.0,0 STARLINK-4737,1 53834U 22114S   24217.22476374  .00010124  00000-0  65312-3 0  9992,2 53834  53.2179  38.5781 0001624  83.3282 276.7895 15.08848252104364,6917.855,95.437,540.844,538.597,0.0
53834.0,STARLINK-4737,PAYLOAD,2024-08-04 11:45:12,15.08850382,0.0001647,53.2162,37.3956,80.1497,279.9681,0.0006661,0.00010332,0.0,0 STARLINK-4737,1 53834U 22114S   24217.48972620  .00010332  00000-0  66610-3 0  9998,2 53834  53.2162  37.3956 0001647  80.1497 279.9681 15.08850382104944,6917.849,95.437,540.853,538.574,0.0
53834.0,STARLINK-4737,PAYLOAD,2024-08-04 19:42:07,15.08862121,0.0001394,53.2159,35.9054,86.3395,273.7757,0.00098599,0.00015448,0.0,0 STARLINK-4737,1 53834U 22114S   24217.82092233  .00015448  00000-0  98599-3 0  9993,2 53834  53.2159  35.9054 0001394  86.3395 273.7757 15.08862121104992,6917.813,95.436,540.642,538.713,0.0
53834.0,STARLINK-4737,PAYLOAD,2024-08-05 17:57:31,15.08842636,0.0001434,53.2176,31.7382,103.7003,256.4149,9.3905e-05,1.207e-05,0.0,0 STARLINK-4737,1 53834U 22114S   24218.74827889  .00001207  00000-0  93905-4 0  9993,2 53834  53.2176  31.7382 0001434 103.7003 256.4149 15.08842636104592,6917.872,95.437,540.729,538.745,0.0
53834.0,STARLINK-4737,PAYLOAD,2024-08-06 05:05:13,15.0885297,0.000147,53.2171,29.6573,100.9002,259.2155,0.0015792,0.00024943,0.0,0 STARLINK-4737,1 53834U 22114S   24219.21196058  .00024943  00000-0  15792-2 0  9991,2 53834  53.2171  29.6573 0001470 100.9002 259.2155 15.08852970104661,6917.841,95.437,540.723,538.689,0.0
53834.0,STARLINK-4737,PAYLOAD,2024-08-06 14:37:32,15.08831414,0.0001549,53.2166,27.8761,80.3445,279.7722,0.001022,0.00016011,0.0,0 STARLINK-4737,1 53834U 22114S   24219.60940517  .00016011  00000-0  10220-2 0  9999,2 53834  53.2166  27.8761 0001549  80.3445 279.7722 15.08831414105267,6917.907,95.438,540.843,538.7,0.0
53834.0,STARLINK-4737,PAYLOAD,2024-08-06 17:48:18,15.08837842,0.0001498,53.2168,27.2811,84.9794,275.1369,0.0012458,0.00019593,0.0,0 STARLINK-4737,1 53834U 22114S   24219.74188490  .00019593  00000-0  12458-2 0  9991,2 53834  53.2168  27.2811 0001498  84.9794 275.1369 15.08837842104749,6917.887,95.438,540.788,538.716,0.0
53834.0,STARLINK-4737,PAYLOAD,2024-08-07 17:39:05,15.08848982,0.0001405,53.2177,22.8173,86.5929,273.5224,0.00069504,0.00010794,0.0,0 STARLINK-4737,1 53834U 22114S   24220.73548431  .00010794  00000-0  69504-3 0  9996,2 53834  53.2177  22.8173 0001405  86.5929 273.5224 15.08848982104892,6917.853,95.437,540.69,538.746,0.0
53834.0,STARLINK-4737,PAYLOAD,2024-08-08 14:19:06,15.08843188,0.0001608,53.2174,18.9536,109.1781,250.9385,0.00064871,0.00010052,0.0,0 STARLINK-4737,1 53834U 22114S   24221.59660626  .00010052  00000-0  64871-3 0  9991,2 53834  53.2174  18.9536 0001608 109.1781 250.9385 15.08843188105566,6917.871,95.437,540.848,538.623,0.0
53834.0,STARLINK-4737,PAYLOAD,2024-08-08 20:40:39,15.08835832,0.0001409,53.2179,17.7634,85.9037,274.2116,3.8584e-05,3.26e-06,0.0,0 STARLINK-4737,1 53834U 22114S   24221.86156929  .00000326  00000-0  38584-4 0  9993,2 53834  53.2179  17.7634 0001409  85.9037 274.2116 15.08835832105064,6917.893,95.438,540.733,538.783,0.0
53834.0,STARLINK-4737,PAYLOAD,2024-08-09 03:02:11,15.08847587,0.0001253,53.2176,16.5779,93.2447,266.8689,0.00019846,2.873e-05,0.0,0 STARLINK-4737,1 53834U 22114S   24222.12652389  .00002873  00000-0  19846-3 0  9992,2 53834  53.2176  16.5779 0001253  93.2447 266.8689 15.08847587105109,6917.857,95.437,540.589,538.855,0.0
53834.0,STARLINK-4737,PAYLOAD,2024-08-09 10:59:07,15.08841942,0.0002267,53.218,15.0914,95.6657,264.4594,0.00022416,3.281e-05,0.0,0 STARLINK-4737,1 53834U 22114S   24222.45772953  .00003281  00000-0  22416-3 0  9999,2 53834  53.2180  15.0914 0002267  95.6657 264.4594 15.08841942105157,6917.874,95.437,541.308,538.171,0.0
53834.0,STARLINK-4737,PAYLOAD,2024-08-09 14:09:53,15.08840164,0.0001955,53.2182,14.4976,103.2437,256.8773,2.9416e-05,1.8e-06,0.0,0 STARLINK-4737,1 53834U 22114S   24222.59020817  .00000180  00000-0  29416-4 0  9992,2 53834  53.2182  14.4976 0001955 103.2437 256.8773 15.08840164105716,6917.88,95.438,541.097,538.392,0.0
53834.0,STARLINK-4737,PAYLOAD,2024-08-09 17:20:40,15.08843923,0.000185,53.2186,13.9062,103.0799,257.04,0.00011692,1.573e-05,0.0,0 STARLINK-4737,1 53834U 22114S   24222.72268714  .00001573  00000-0  11692-3 0  9990,2 53834  53.2186  13.9062 0001850 103.0799 257.0400 15.08843923105731,6917.868,95.437,541.013,538.454,0.0
53834.0,STARLINK-4737,PAYLOAD,2024-08-10 14:00:41,15.0883975,0.0001605,53.218,10.0383,99.8776,260.2398,0.00016478,2.335e-05,0.0,0 STARLINK-4737,1 53834U 22114S   24223.58381096  .00002335  00000-0  16478-3 0  9998,2 53834  53.2180  10.0383 0001605  99.8776 260.2398 15.08839750105863,6917.881,95.438,540.856,538.636,0.0
53834.0,STARLINK-4737,PAYLOAD,2024-08-10 18:46:50,15.08849607,0.0001481,53.2182,9.1436,91.0274,269.0888,0.00025084,3.707e-05,0.0,0 STARLINK-4737,1 53834U 22114S   24223.78252639  .00003707  00000-0  25084-3 0  9997,2 53834  53.2182   9.1436 0001481  91.0274 269.0888 15.08849607105359,6917.851,95.437,540.741,538.691,0.0
53834.0,STARLINK-4737,PAYLOAD,2024-08-11 02:43:44,15.0887476,0.0001155,53.2173,7.6573,78.6517,281.4605,0.00066409,0.00010307,0.0,0 STARLINK-4737,1 53834U 22114S   24224.11371284  .00010307  00000-0  66409-3 0  9993,2 53834  53.2173   7.6573 0001155  78.6517 281.4605 15.08874760105402,6917.774,95.435,540.438,538.84,0.0
53834.0,STARLINK-4737,PAYLOAD,2024-08-11 18:37:37,15.08832991,0.0001677,53.2172,4.6854,89.985,270.1334,-0.00015006,-2.675e-05,0.0,0 STARLINK-4737,1 53834U 22114S   24224.77612927 -.00002675  00000-0 -15006-3 0  9995,2 53834  53.2172   4.6854 0001677  89.9850 270.1334 15.08832991105509,6917.902,95.438,540.927,538.607,0.0
53834.0,STARLINK-4737,PAYLOAD,2024-08-12 02:34:32,15.08855606,0.0001689,53.2161,3.1968,90.0633,270.0552,0.00032067,4.821e-05,0.0,0 STARLINK-4737,1 53834U 22114S   24225.10732161  .00004821  00000-0  32067-3 0  9995,2 53834  53.2161   3.1968 0001689  90.0633 270.0552 15.08855606105556,6917.833,95.437,540.866,538.529,0.0
53834.0,STARLINK-4737,PAYLOAD,2024-08-12 15:17:38,15.08857239,0.0003743,53.2168,0.8165,88.163,271.9791,0.00032695,4.921e-05,0.0,0 STARLINK-4737,1 53834U 22114S   24225.63724700  .00004921  00000-0  32695-3 0  9991,2 53834  53.2168   0.8165 0003743  88.1630 271.9791 15.08857239106172,6917.828,95.436,542.282,537.103,0.0
53834.0,STARLINK-4737,PAYLOAD,2024-08-12 18:28:24,15.08839894,0.0002613,53.2175,0.2198,93.6088,266.5203,9.3034e-07,-2.74e-06,0.0,0 STARLINK-4737,1 53834U 22114S   24225.76973069 -.00000274  00000-0  93034-6 0  9994,2 53834  53.2175   0.2198 0002613  93.6088 266.5203 15.08839894105650,6917.881,95.438,541.553,537.938,0.0
53834.0,STARLINK-4737,PAYLOAD,2024-08-12 21:39:09,15.08880307,0.0002292,53.218,359.621,115.5988,244.5241,0.00055937,8.635e-05,0.0,0 STARLINK-4737,1 53834U 22114S   24225.90218960  .00008635  00000-0  55937-3 0  9997,2 53834  53.2180 359.6210 0002292 115.5988 244.5241 15.08880307106214,6917.757,95.435,541.208,538.037,0.0
53834.0,STARLINK-4737,PAYLOAD,2024-08-13 02:25:18,15.08881142,0.0003207,53.218,358.7314,81.0588,279.0767,0.00052554,8.095e-05,0.0,0 STARLINK-4737,1 53834U 22114S   24226.10090602  .00008095  00000-0  52554-3 0  9993,2 53834  53.2180 358.7314 0003207  81.0588 279.0767 15.08881142105706,6917.755,95.435,541.838,537.401,0.0
53834.0,STARLINK-4737,PAYLOAD,2024-08-13 08:46:52,15.08852553,0.0004544,53.2013,357.5432,85.4861,274.665,0.00037301,5.655e-05,0.0,0 STARLINK-4737,1 53834U 22114S   24226.36588153  .00005655  00000-0  37301-3 0  9996,2 53834  53.2013 357.5432 0004544  85.4861 274.6650 15.08852553105746,6917.842,95.437,542.85,536.564,0.0
53834.0,STARLINK-4737,PAYLOAD,2024-08-13 18:19:12,15.08825286,0.0002493,53.2136,355.7583,95.1134,265.0142,-0.00016194,-2.864e-05,0.0,0 STARLINK-4737,1 53834U 22114S   24226.76333600 -.00002864  00000-0 -16194-3 0  9993,2 53834  53.2136 355.7583 0002493  95.1134 265.0142 15.08825286105801,6917.925,95.438,541.515,538.066,0.0
53834.0,STARLINK-4737,PAYLOAD,2024-08-14 02:16:07,15.08836811,0.0002135,53.217,354.2692,111.981,248.1409,-8.8361e-05,-1.694e-05,0.0,0 STARLINK-4737,1 53834U 22114S   24227.09452805 -.00001694  00000-0 -88361-4 0  9995,2 53834  53.2170 354.2692 0002135 111.9810 248.1409 15.08836811105854,6917.89,95.438,541.232,538.278,0.0
